[Satellite]
VERSION=1.1
NAME=BRITE-AUSTRIA
NICKNAME=BRITE-AUSTRIA
TLE1=1 39091U 13009F   17186.16479371  .00000014  00000-0  20481-4 0  9990
TLE2=2 39091  98.5491  30.8142 0009354 253.2015 106.8144 14.35031967228068
